[
    {
        "Altitude(m)": 611965.2121337068,
        "Argument of Periapsis(deg)": 0.0,
        "Eccentricity": 0.0,
        "Inclination(deg)": 60.0,
        "Latitude(deg)": 59.14024273457063,
        "Longitude(deg)": 23.9696359082729,
        "Mean Anomaly(deg)": 81.8182,
        "RAAN(deg)": 50.0,
        "Satellite Name": "Test1 225",
        "Satellite Number": 225,
        "Semi-Major Axis(m)": 6980739.136638005,
        "Time(s)": 0
    },
    {
        "Altitude(m)": 611995.8382713713,
        "Argument of Periapsis(deg)": 0.00010418945913296404,
        "Eccentricity": 0.0,
        "Inclination(deg)": 60.0,
        "Latitude(deg)": 59.283344860058726,
        "Longitude(deg)": 25.10299977989358,
        "Mean Anomaly(deg)": 82.43830614546184,
        "RAAN(deg)": 49.99957995086026,
        "Satellite Name": "Test1 225",
        "Satellite Number": 225,
        "Semi-Major Axis(m)": 6980739.136638005,
        "Time(s)": 10
    },
    {
        "Altitude(m)": 612024.123522182,
        "Argument of Periapsis(deg)": 0.0002083789182659281,
        "Eccentricity": 0.0,
        "Inclination(deg)": 60.0,
        "Latitude(deg)": 59.415764922530634,
        "Longitude(deg)": 26.245887360707492,
        "Mean Anomaly(deg)": 83.05841229092367,
        "RAAN(deg)": 49.99915990172052,
        "Satellite Name": "Test1 225",
        "Satellite Number": 225,
        "Semi-Major Axis(m)": 6980739.136638005,
        "Time(s)": 20
    },
    {
        "Altitude(m)": 612050.0516670044,
        "Argument of Periapsis(deg)": 0.00031256837739889213,
        "Eccentricity": 0.0,
        "Inclination(deg)": 60.0,
        "Latitude(deg)": 59.537363494581804,
        "Longitude(deg)": 27.39767064440469,
        "Mean Anomaly(deg)": 83.67851843638549,
        "RAAN(deg)": 49.998739852580776,
        "Satellite Name": "Test1 225",
        "Satellite Number": 225,
        "Semi-Major Axis(m)": 6980739.136638005,
        "Time(s)": 30
    },
    {
        "Altitude(m)": 612073.607846948,
        "Argument of Periapsis(deg)": 0.0004167578365318562,
        "Eccentricity": 0.0,
        "Inclination(deg)": 60.0,
        "Latitude(deg)": 59.64801040506264,
        "Longitude(deg)": 28.557686008372414,
        "Mean Anomaly(deg)": 84.29862458184735,
        "RAAN(deg)": 49.99831980344103,
        "Satellite Name": "Test1 225",
        "Satellite Number": 225,
        "Semi-Major Axis(m)": 6980739.136638005,
        "Time(s)": 40
    },
    {
        "Altitude(m)": 612094.778570389,
        "Argument of Periapsis(deg)": 0.0005209472956648203,
        "Eccentricity": 0.0,
        "Inclination(deg)": 60.0,
        "Latitude(deg)": 59.74758539223234,
        "Longitude(deg)": 29.725235072601564,
        "Mean Anomaly(deg)": 84.91873072730917,
        "RAAN(deg)": 49.99789975430129,
        "Satellite Name": "Test1 225",
        "Satellite Number": 225,
        "Semi-Major Axis(m)": 6980739.136638005,
        "Time(s)": 50
    },
    {
        "Altitude(m)": 612113.5517193096,
        "Argument of Periapsis(deg)": 0.0006251367547977843,
        "Eccentricity": 0.0,
        "Inclination(deg)": 60.0,
        "Latitude(deg)": 59.83597872335254,
        "Longitude(deg)": 30.899587404399742,
        "Mean Anomaly(deg)": 85.538836872771,
        "RAAN(deg)": 49.997479705161545,
        "Satellite Name": "Test1 225",
        "Satellite Number": 225,
        "Semi-Major Axis(m)": 6980739.136638005,
        "Time(s)": 60
    },
    {
        "Altitude(m)": 612129.9165550234,
        "Argument of Periapsis(deg)": 0.0007293262139307483,
        "Eccentricity": 0.0,
        "Inclination(deg)": 60.0,
        "Latitude(deg)": 59.91309177365467,
        "Longitude(deg)": 32.079983545482406,
        "Mean Anomaly(deg)": 86.15894301823285,
        "RAAN(deg)": 49.997059656021804,
        "Satellite Name": "Test1 225",
        "Satellite Number": 225,
        "Semi-Major Axis(m)": 6980739.136638005,
        "Time(s)": 70
    },
    {
        "Altitude(m)": 612143.8637232177,
        "Argument of Periapsis(deg)": 0.0008335156730637124,
        "Eccentricity": 0.0,
        "Inclination(deg)": 60.0,
        "Latitude(deg)": 59.978837557853026,
        "Longitude(deg)": 33.26563683241494,
        "Mean Anomaly(deg)": 86.77904916369465,
        "RAAN(deg)": 49.996639606882056,
        "Satellite Name": "Test1 225",
        "Satellite Number": 225,
        "Semi-Major Axis(m)": 6980739.136638005,
        "Time(s)": 80
    },
    {
        "Altitude(m)": 612155.385258391,
        "Argument of Periapsis(deg)": 0.0009377051321966765,
        "Eccentricity": 0.0,
        "Inclination(deg)": 60.0,
        "Latitude(deg)": 60.03314120774307,
        "Longitude(deg)": 34.455737014331014,
        "Mean Anomaly(deg)": 87.39915530915647,
        "RAAN(deg)": 49.996219557742315,
        "Satellite Name": "Test1 225",
        "Satellite Number": 225,
        "Semi-Major Axis(m)": 6980739.136638005,
        "Time(s)": 90
    },
    {
        "Altitude(m)": 612164.474587567,
        "Argument of Periapsis(deg)": 0.0010418945913296407,
        "Eccentricity": 0.0,
        "Inclination(deg)": 60.0,
        "Latitude(deg)": 60.075940389914415,
        "Longitude(deg)": 35.64945412775348,
        "Mean Anomaly(deg)": 88.0192614546183,
        "RAAN(deg)": 49.99579950860257,
        "Satellite Name": "Test1 225",
        "Satellite Number": 225,
        "Semi-Major Axis(m)": 6980739.136638005,
        "Time(s)": 100
    },
    {
        "Altitude(m)": 612171.1265334086,
        "Argument of Periapsis(deg)": 0.0011460840504626045,
        "Eccentricity": 0.0,
        "Inclination(deg)": 60.0,
        "Latitude(deg)": 60.10718565823296,
        "Longitude(deg)": 36.84594108323536,
        "Mean Anomaly(deg)": 88.63936760008015,
        "RAAN(deg)": 49.99537945946283,
        "Satellite Name": "Test1 225",
        "Satellite Number": 225,
        "Semi-Major Axis(m)": 6980739.136638005,
        "Time(s)": 110
    },
    {
        "Altitude(m)": 612175.3373166551,
        "Argument of Periapsis(deg)": 0.0012502735095955685,
        "Eccentricity": 0.0,
        "Inclination(deg)": 60.0,
        "Latitude(deg)": 60.126840736502984,
        "Longitude(deg)": 38.04433795258629,
        "Mean Anomaly(deg)": 89.25947374554197,
        "RAAN(deg)": 49.99495941032309,
        "Satellite Name": "Test1 225",
        "Satellite Number": 225,
        "Semi-Major Axis(m)": 6980739.136638005,
        "Time(s)": 120
    },
    {
        "Altitude(m)": 612177.1045578866,
        "Argument of Periapsis(deg)": 0.0013544629687285324,
        "Eccentricity": 0.0,
        "Inclination(deg)": 60.0,
        "Latitude(deg)": 60.134882727564275,
        "Longitude(deg)": 39.24377640290904,
        "Mean Anomaly(deg)": 89.8795798910038,
        "RAAN(deg)": 49.99453936118335,
        "Satellite Name": "Test1 225",
        "Satellite Number": 225,
        "Semi-Major Axis(m)": 6980739.136638005,
        "Time(s)": 130
    },
    {
        "Altitude(m)": 612176.4272786541,
        "Argument of Periapsis(deg)": 0.0014586524278614966,
        "Eccentricity": 0.0,
        "Inclination(deg)": 60.0,
        "Latitude(deg)": 60.13130224602219,
        "Longitude(deg)": 40.443382720562504,
        "Mean Anomaly(deg)": 90.49968603646563,
        "RAAN(deg)": 49.99411931204361,
        "Satellite Name": "Test1 225",
        "Satellite Number": 225,
        "Semi-Major Axis(m)": 6980739.136638005,
        "Time(s)": 140
    },
    {
        "Altitude(m)": 612173.3059019281,
        "Argument of Periapsis(deg)": 0.0015628418869944607,
        "Eccentricity": 0.0,
        "Inclination(deg)": 60.0,
        "Latitude(deg)": 60.11610347282306,
        "Longitude(deg)": 41.642282404592684,
        "Mean Anomaly(deg)": 91.11979218192747,
        "RAAN(deg)": 49.99369926290386,
        "Satellite Name": "Test1 225",
        "Satellite Number": 225,
        "Semi-Major Axis(m)": 6980739.136638005,
        "Time(s)": 150
    },
    {
        "Altitude(m)": 612167.7422518994,
        "Argument of Periapsis(deg)": 0.0016670313461274247,
        "Eccentricity": 0.0,
        "Inclination(deg)": 60.0,
        "Latitude(deg)": 60.08930413093324,
        "Longitude(deg)": 42.83960476932062,
        "Mean Anomaly(deg)": 91.73989832738928,
        "RAAN(deg)": 49.99327921376412,
        "Satellite Name": "Test1 225",
        "Satellite Number": 225,
        "Semi-Major Axis(m)": 6980739.136638005,
        "Time(s)": 160
    },
    {
        "Altitude(m)": 612159.739553121,
        "Argument of Periapsis(deg)": 0.0017712208052603888,
        "Eccentricity": 0.0,
        "Inclination(deg)": 60.0,
        "Latitude(deg)": 60.05093538244921,
        "Longitude(deg)": 44.034485995582145,
        "Mean Anomaly(deg)": 92.36000447285112,
        "RAAN(deg)": 49.99285916462438,
        "Satellite Name": "Test1 225",
        "Satellite Number": 225,
        "Semi-Major Axis(m)": 6980739.136638005,
        "Time(s)": 170
    },
    {
        "Altitude(m)": 612149.3024289797,
        "Argument of Periapsis(deg)": 0.001875410264393353,
        "Eccentricity": 0.0,
        "Inclination(deg)": 60.0,
        "Latitude(deg)": 60.001041648535036,
        "Longitude(deg)": 45.22607360956883,
        "Mean Anomaly(deg)": 92.98011061831295,
        "RAAN(deg)": 49.992439115484636,
        "Satellite Name": "Test1 225",
        "Satellite Number": 225,
        "Semi-Major Axis(m)": 6980739.136638005,
        "Time(s)": 180
    },
    {
        "Altitude(m)": 612136.4368995132,
        "Argument of Periapsis(deg)": 0.0019795997235263173,
        "Eccentricity": 0.0,
        "Inclination(deg)": 60.0,
        "Latitude(deg)": 59.9396803546048,
        "Longitude(deg)": 46.41353083143214,
        "Mean Anomaly(deg)": 93.60021676377477,
        "RAAN(deg)": 49.992019066344895,
        "Satellite Name": "Test1 225",
        "Satellite Number": 225,
        "Semi-Major Axis(m)": 6980739.136638005,
        "Time(s)": 190
    }
]